{
  "type": "FeatureCollection",
  "features": [
    {
      "type": "Feature",
      "properties": {
        "norad_id": 66575,
        "name": "STARLINK-35810",
        "group": "last-30-days",
        "lat": 42.68462627375953,
        "lon": -165.52070793390266,
        "alt_km": 408.91041749505257,
        "timestamp": "2025-12-16T23:36:34.922836+00:00",
        "meta_object_name": "STARLINK-35810",
        "meta_object_id": "2025-268U",
        "meta_epoch": "2025-12-16T07:44:51.700704",
        "meta_mean_motion": 15.51470242,
        "meta_eccentricity": 0.00055853,
        "meta_inclination": 42.9985,
        "meta_ra_of_asc_node": 100.1537,
        "meta_arg_of_pericenter": 256.7988,
        "meta_mean_anomaly": 103.225,
        "meta_ephemeris_type": 0,
        "meta_classification_type": "U",
        "meta_norad_cat_id": 66575,
        "meta_element_set_no": 999,
        "meta_rev_at_epoch": 518,
        "meta_bstar": 0.0016562465,
        "meta_mean_motion_dot": 0.00101316,
        "meta_mean_motion_ddot": 0,
        "tle_line1": "1 66575U 25268U   25350.32282061  .00101316  00000+0  16562-2 0  9994",
        "tle_line2": "2 66575  42.9985 100.1537 0005585 256.7988 103.2250 15.51470242  5181"
      },
      "geometry": {
        "type": "Point",
        "coordinates": [
          -165.52070793390266,
          42.68462627375953
        ]
      }
    },
    {
      "type": "Feature",
      "properties": {
        "norad_id": 66576,
        "name": "STARLINK-35814",
        "group": "last-30-days",
        "lat": 42.97720022286134,
        "lon": -173.23381268970397,
        "alt_km": 407.1381615428936,
        "timestamp": "2025-12-16T23:36:34.922849+00:00",
        "meta_object_name": "STARLINK-35814",
        "meta_object_id": "2025-268V",
        "meta_epoch": "2025-12-16T07:45:20.642112",
        "meta_mean_motion": 15.49844423,
        "meta_eccentricity": 0.00043381,
        "meta_inclination": 42.9986,
        "meta_ra_of_asc_node": 100.1557,
        "meta_arg_of_pericenter": 85.4789,
        "meta_mean_anomaly": 274.6567,
        "meta_ephemeris_type": 0,
        "meta_classification_type": "U",
        "meta_norad_cat_id": 66576,
        "meta_element_set_no": 999,
        "meta_rev_at_epoch": 518,
        "meta_bstar": 0.0012897593,
        "meta_mean_motion_dot": 0.00074098,
        "meta_mean_motion_ddot": 0,
        "tle_line1": "1 66576U 25268V   25350.32315558  .00074098  00000+0  12898-2 0  9997",
        "tle_line2": "2 66576  42.9986 100.1557 0004338  85.4789 274.6567 15.49844423  5183"
      },
      "geometry": {
        "type": "Point",
        "coordinates": [
          -173.23381268970397,
          42.97720022286134
        ]
      }
    },
    {
      "type": "Feature",
      "properties": {
        "norad_id": 66577,
        "name": "STARLINK-35815",
        "group": "last-30-days",
        "lat": 42.68817417271241,
        "lon": -165.5647041055842,
        "alt_km": 407.6677374829442,
        "timestamp": "2025-12-16T23:36:34.922859+00:00",
        "meta_object_name": "STARLINK-35815",
        "meta_object_id": "2025-268W",
        "meta_epoch": "2025-12-16T07:44:22.010208",
        "meta_mean_motion": 15.50639124,
        "meta_eccentricity": 8.111e-05,
        "meta_inclination": 42.9989,
        "meta_ra_of_asc_node": 100.1505,
        "meta_arg_of_pericenter": 168.9776,
        "meta_mean_anomaly": 191.1102,
        "meta_ephemeris_type": 0,
        "meta_classification_type": "U",
        "meta_norad_cat_id": 66577,
        "meta_element_set_no": 999,
        "meta_rev_at_epoch": 518,
        "meta_bstar": 0.001263067,
        "meta_mean_motion_dot": 0.00074625,
        "meta_mean_motion_ddot": 0,
        "tle_line1": "1 66577U 25268W   25350.32247697  .00074625  00000+0  12631-2 0  9997",
        "tle_line2": "2 66577  42.9989 100.1505 0000811 168.9776 191.1102 15.50639124  5185"
      },
      "geometry": {
        "type": "Point",
        "coordinates": [
          -165.5647041055842,
          42.68817417271241
        ]
      }
    },
    {
      "type": "Feature",
      "properties": {
        "norad_id": 66578,
        "name": "STARLINK-35743",
        "group": "last-30-days",
        "lat": 42.48343863256163,
        "lon": -163.07965472706667,
        "alt_km": 409.38336147139944,
        "timestamp": "2025-12-16T23:36:34.922870+00:00",
        "meta_object_name": "STARLINK-35743",
        "meta_object_id": "2025-268X",
        "meta_epoch": "2025-12-15T16:16:19.050528",
        "meta_mean_motion": 15.50569208,
        "meta_eccentricity": 0.00022003,
        "meta_inclination": 42.9999,
        "meta_ra_of_asc_node": 103.9125,
        "meta_arg_of_pericenter": 266.0118,
        "meta_mean_anomaly": 94.049,
        "meta_ephemeris_type": 0,
        "meta_classification_type": "U",
        "meta_norad_cat_id": 66578,
        "meta_element_set_no": 999,
        "meta_rev_at_epoch": 508,
        "meta_bstar": 0.0008996047,
        "meta_mean_motion_dot": 0.00052774,
        "meta_mean_motion_ddot": 0,
        "tle_line1": "1 66578U 25268X   25349.67799827  .00052774  00000+0  89960-3 0  9992",
        "tle_line2": "2 66578  42.9999 103.9125 0002200 266.0118  94.0490 15.50569208  5085"
      },
      "geometry": {
        "type": "Point",
        "coordinates": [
          -163.07965472706667,
          42.48343863256163
        ]
      }
    },
    {
      "type": "Feature",
      "properties": {
        "norad_id": 66579,
        "name": "STARLINK-35868",
        "group": "last-30-days",
        "lat": 42.16521122449891,
        "lon": -160.09700337396234,
        "alt_km": 409.67151397199177,
        "timestamp": "2025-12-16T23:36:34.922884+00:00",
        "meta_object_name": "STARLINK-35868",
        "meta_object_id": "2025-268Y",
        "meta_epoch": "2025-12-15T16:15:47.994048",
        "meta_mean_motion": 15.506111,
        "meta_eccentricity": 0.00027861,
        "meta_inclination": 43.0018,
        "meta_ra_of_asc_node": 103.9094,
        "meta_arg_of_pericenter": 274.4238,
        "meta_mean_anomaly": 85.6304,
        "meta_ephemeris_type": 0,
        "meta_classification_type": "U",
        "meta_norad_cat_id": 66579,
        "meta_element_set_no": 999,
        "meta_rev_at_epoch": 508,
        "meta_bstar": 0.00097196041,
        "meta_mean_motion_dot": 0.00057166,
        "meta_mean_motion_ddot": 0,
        "tle_line1": "1 66579U 25268Y   25349.67763882  .00057166  00000+0  97196-3 0  9995",
        "tle_line2": "2 66579  43.0018 103.9094 0002786 274.4238  85.6304 15.50611100  5089"
      },
      "geometry": {
        "type": "Point",
        "coordinates": [
          -160.09700337396234,
          42.16521122449891
        ]
      }
    },
    {
      "type": "Feature",
      "properties": {
        "norad_id": 66580,
        "name": "STARLINK-35872",
        "group": "last-30-days",
        "lat": 41.891016060403544,
        "lon": -158.0133571524142,
        "alt_km": 408.66818020182563,
        "timestamp": "2025-12-16T23:36:34.922894+00:00",
        "meta_object_name": "STARLINK-35872",
        "meta_object_id": "2025-268Z",
        "meta_epoch": "2025-12-16T07:42:52.826400",
        "meta_mean_motion": 15.50594193,
        "meta_eccentricity": 0.00012783,
        "meta_inclination": 42.9986,
        "meta_ra_of_asc_node": 100.1453,
        "meta_arg_of_pericenter": 327.8159,
        "meta_mean_anomaly": 32.2623,
        "meta_ephemeris_type": 0,
        "meta_classification_type": "U",
        "meta_norad_cat_id": 66580,
        "meta_element_set_no": 999,
        "meta_rev_at_epoch": 518,
        "meta_bstar": 0.00092594607,
        "meta_mean_motion_dot": 0.00054387,
        "meta_mean_motion_ddot": 0,
        "tle_line1": "1 66580U 25268Z   25350.32144475  .00054387  00000+0  92595-3 0  9992",
        "tle_line2": "2 66580  42.9986 100.1453 0001278 327.8159  32.2623 15.50594193  5186"
      },
      "geometry": {
        "type": "Point",
        "coordinates": [
          -158.0133571524142,
          41.891016060403544
        ]
      }
    },
    {
      "type": "Feature",
      "properties": {
        "norad_id": 66581,
        "name": "STARLINK-35744",
        "group": "last-30-days",
        "lat": 41.505755682358284,
        "lon": -155.47934461908937,
        "alt_km": 408.7181593003115,
        "timestamp": "2025-12-16T23:36:34.922904+00:00",
        "meta_object_name": "STARLINK-35744",
        "meta_object_id": "2025-268AA",
        "meta_epoch": "2025-12-16T07:42:23.637024",
        "meta_mean_motion": 15.50617754,
        "meta_eccentricity": 9.614e-05,
        "meta_inclination": 42.9991,
        "meta_ra_of_asc_node": 100.1395,
        "meta_arg_of_pericenter": 264.5629,
        "meta_mean_anomaly": 95.5121,
        "meta_ephemeris_type": 0,
        "meta_classification_type": "U",
        "meta_norad_cat_id": 66581,
        "meta_element_set_no": 999,
        "meta_rev_at_epoch": 518,
        "meta_bstar": 0.00099508252,
        "meta_mean_motion_dot": 0.00058553,
        "meta_mean_motion_ddot": 0,
        "tle_line1": "1 66581U 25268AA  25350.32110691  .00058553  00000+0  99508-3 0  9996",
        "tle_line2": "2 66581  42.9991 100.1395 0000961 264.5629  95.5121 15.50617754  5189"
      },
      "geometry": {
        "type": "Point",
        "coordinates": [
          -155.47934461908937,
          41.505755682358284
        ]
      }
    }
  ]
}